{"type": "FeatureCollection", "features": [{"type": "Feature", "properties": {"name": "Álvaro Obregón", "cve_ent": "09", "cve_mun": "010"}, "geometry": {"type": "Polygon", "coordinates": [[[-99.2054, 19.4031], [-99.2012, 19.3993], [-99.1988, 19.3971], [-99.1956, 19.3942], [-99.1923, 19.3908], [-99.1897, 19.3878], [-99.1878, 19.3851], [-99.1856, 19.3821], [-99.1836, 19.3791], [-99.182, 19.3762], [-99.1808, 19.3732], [-99.1799, 19.3701], [-99.1793, 19.3669], [-99.1792, 19.3638], [-99.1795, 19.3607], [-99.1802, 19.3577], [-99.1813, 19.3548], [-99.1827, 19.352], [-99.1845, 19.3493], [-99.1866, 19.3468], [-99.1889, 19.3445], [-99.1915, 19.3424], [-99.1943, 19.3406], [-99.1972, 19.339], [-99.2003, 19.3377], [-99.2035, 19.3367], [-99.2068, 19.336], [-99.2101, 19.3356], [-99.2134, 19.3355], [-99.2167, 19.3357], [-99.2199, 19.3362], [-99.223, 19.337], [-99.226, 19.3381], [-99.2288, 19.3395], [-99.2313, 19.3411], [-99.2336, 19.343], [-99.2356, 19.3451], [-99.2373, 19.3474], [-99.2387, 19.3498], [-99.2397, 19.3523], [-99.2404, 19.3549], [-99.2407, 19.3576], [-99.2407, 19.3603], [-99.2404, 19.363], [-99.2397, 19.3656], [-99.2388, 19.3682], [-99.2375, 19.3706], [-99.236, 19.3729], [-99.2342, 19.375], [-99.2322, 19.3769], [-99.2299, 19.3787], [-99.2275, 19.3802], [-99.2249, 19.3815], [-99.2222, 19.3825], [-99.2194, 19.3833], [-99.2165, 19.3838], [-99.2136, 19.3841], [-99.2107, 19.3841], [-99.2078, 19.3839], [-99.205, 19.3834], [-99.2023, 19.3827], [-99.1997, 19.3818], [-99.1972, 19.3807], [-99.1949, 19.3793], [-99.1927, 19.3777], [-99.1907, 19.376], [-99.1889, 19.3741], [-99.1873, 19.372], [-99.1859, 19.3698], [-99.1847, 19.3675], [-99.1838, 19.365], [-99.1831, 19.3625], [-99.215, 19.285], [-99.22, 19.283], [-99.23, 19.282], [-99.24, 19.283], [-99.25, 19.285], [-99.26, 19.289], [-99.27, 19.294], [-99.278, 19.3], [-99.285, 19.306], [-99.29, 19.313], [-99.292, 19.32], [-99.29, 19.327], [-99.286, 19.333], [-99.28, 19.338], [-99.273, 19.342], [-99.266, 19.345], [-99.259, 19.347], [-99.252, 19.348], [-99.245, 19.348], [-99.238, 19.347], [-99.231, 19.345], [-99.225, 19.342], [-99.22, 19.339], [-99.216, 19.335], [-99.213, 19.331], [-99.211, 19.327], [-99.21, 19.323], [-99.21, 19.319], [-99.211, 19.315], [-99.213, 19.311], [-99.216, 19.308], [-99.22, 19.305], [-99.224, 19.303], [-99.228, 19.302], [-99.2054, 19.4031]]]}}]}